ORBCOMM-X               
1 21576U 91050C   24199.45806732  .00000688  00000+0  22013-3 0  9998
2 21576  98.3884 266.1941 0004843 112.9473 247.2229 14.42593126733848
ORBCOMM FM01            
1 23545U 95017A   24199.40212231  .00009410  00000+0  12197-2 0  9996
2 23545  69.9655 183.6852 0003259 145.8602 214.2758 14.81053146562778
ORBCOMM FM02            
1 23546U 95017B   24199.44767365  .00009292  00000+0  12141-2 0  9991
2 23546  69.9669 203.1060 0004538 122.2011 237.9579 14.80719403562426
ORBCOMM FM08            
1 25112U 97084A   24199.60180524  .00004773  00000+0  14546-2 0  9992
2 25112  45.0123 170.8450 0008780 350.8580   9.2109 14.42940644392996
ORBCOMM FM10            
1 25113U 97084B   24199.61350197  .00004805  00000+0  14676-2 0  9999
2 25113  45.0135 172.7046 0006924 325.7574  34.2829 14.42836250568140
ORBCOMM FM11            
1 25114U 97084C   24199.43050305  .00004070  00000+0  12533-2 0  9992
2 25114  45.0121 173.7057 0007713 325.2738  34.7608 14.42699969393086
ORBCOMM FM12            
1 25115U 97084D   24199.39203731  .00002989  00000+0  93284-3 0  9991
2 25115  45.0128 173.6088 0006736 324.9245  35.1161 14.42659205392874
ORBCOMM FM09            
1 25116U 97084E   24199.61281217  .00004283  00000+0  13183-2 0  9990
2 25116  45.0131 173.2620 0007807 315.0050  45.0167 14.42627321393110
